IRIDIUM 156             
1 43576U 18061H   26156.25678861  .00000230  00000+0  75094-4 0  9997
2 43576  86.3966  61.7176 0002165  79.9500 280.1940 14.34217912411663
IRIDIUM 164             
1 43577U 18061J   26156.44706405  .00000154  00000+0  47806-4 0  9990
2 43577  86.3967  61.6782 0002067  88.4479 271.6953 14.34216769411734
IRIDIUM 159             
1 43578U 18061K   26156.48512169  .00000011  00000+0 -30154-5 0  9999
2 43578  86.3962  61.5990 0002188  85.7098 274.4348 14.34217376411702
IRIDIUM 180             
1 43922U 19002A   26156.48461764  .00000030  00000+0  36964-5 0  9997
2 43922  86.3973 358.4908 0002236  88.6496 271.4956 14.34217757387316
IRIDIUM 176             
1 43923U 19002B   26156.06073615  .00001227  00000+0  19074-3 0  9996
2 43923  86.6096 358.6135 0002234  83.0034 277.1437 14.72250840397461
IRIDIUM 168             
1 43924U 19002C   26156.47827513 -.00000007  00000+0 -95150-5 0  9994
2 43924  86.3972 358.5708 0002072  89.8573 270.2860 14.34217322387299
IRIDIUM 173             
1 43925U 19002D   26156.25628138  .00000158  00000+0  49476-4 0  9997
2 43925  86.3971 358.5521 0002234  86.2879 273.8572 14.34219150387247
IRIDIUM 169             
1 43926U 19002E   26156.35820575  .00000312  00000+0  95484-4 0  9990
2 43926  86.4236  30.1387 0002265  70.5362 289.6081 14.38608885388526
IRIDIUM 172             
1 43927U 19002F   26156.31971031  .00000038  00000+0  66320-5 0  9994
2 43927  86.3972 358.5340 0002282  89.5100 270.6358 14.34217654387261
IRIDIUM 175             
1 43928U 19002G   26156.63091846  .00000367  00000+0  10237-3 0  9996
2 43928  86.4506 295.3529 0001090 239.0378 121.0716 14.43606201397312
IRIDIUM 171             
1 43929U 19002H   26156.30068198  .00000017  00000+0 -97643-6 0  9997
2 43929  86.3980 358.8466 0001920  86.6962 273.4453 14.34217500387252
IRIDIUM 170             
1 43930U 19002J   26156.27082378  .00000230  00000+0  32602-4 0  9999
2 43930  86.6095 358.5286 0002417  90.5498 269.5996 14.72249691397506
IRIDIUM 167             
1 43931U 19002K   26156.29433896  .00000018  00000+0 -67884-6 0  9994
2 43931  86.3974 358.5667 0001887  84.6711 275.4700 14.34217605387253
IRIDIUM 181             
1 56726U 23068S   26156.45912036  .00000352  00000+0  98500-4 0  9990
2 56726  86.4503  61.6926 0002272  89.8948 270.2513 14.43308035160742
IRIDIUM 177             
1 56727U 23068T   26156.01903997  .00000489  00000+0  60813-4 0  9996
2 56727  86.1958 334.5722 0002435  86.4963 273.6537 14.80230899164561
IRIDIUM 174             
1 56728U 23068U   26156.05455637  .00000414  00000+0  61731-4 0  9992
2 56728  86.6100 358.7643 0002423  89.6216 270.5279 14.72253240164238
IRIDIUM 178             
1 56729U 23068V   26156.07576705  .00001069  00000+0  13718-3 0  9993
2 56729  86.6547  30.4218 0002495  88.9380 271.2128 14.80245362164572
IRIDIUM 179             
1 56730U 23068W   26155.66480721  .00001187  00000+0  15277-3 0  9994
2 56730  86.6785  39.5356 0002336  85.6761 274.4728 14.80241824164516
